STARLINK-36867          
1 67983U 26038Y   26078.66668981 -.00449312  00000+0 -86582-2 0  9990
2 67983  97.2848  89.4375 0001798 108.2362 314.0500 15.49453573  4807
STARLINK-36266          
1 67984U 26038Z   26078.66668981 -.02346501  00000+0 -23647-1 0  9991
2 67984  97.2859  89.5174 0001878  94.4041 173.1299 15.69045704  4777
STARLINK-36802          
1 67985U 26038AA  26078.80522240  .00131831  00000+0  87039-3 0  9996
2 67985  97.2878  89.6681 0001597  80.9210 279.2236 15.75209668  4787
STARLINK-36535          
1 67986U 26039A   26078.66668981 -.01872056  00000+0 -25150-1 0  9993
2 67986  42.9998 354.2994 0001343 250.6367 323.1359 15.60300400  4486
STARLINK-36744          
1 67987U 26039B   26078.66668981 -.01859618  00000+0 -23584-1 0  9992
2 67987  42.9994 354.2223 0001265 250.0906 354.4594 15.61756009  4483
STARLINK-36734          
1 67988U 26039C   26078.66668981  .00066551  00000+0  11326-2 0  9998
2 67988  42.9999 355.2696 0001849 249.4362 291.5365 15.50527926  4489
STARLINK-36957          
1 67989U 26039D   26078.66668981 -.01856784  00000+0 -24613-1 0  9999
2 67989  42.9996 354.2511 0001195 249.2779 343.3989 15.60620393  4487
STARLINK-36951          
1 67990U 26039E   26078.25002315 -.01847922  00000+0 -26703-1 0  9995
2 67990  42.9997 356.9048 0001557 268.0285  69.2344 15.58361148  4416
STARLINK-36941          
1 67991U 26039F   26078.66668981  .00064264  00000+0  10943-2 0  9995
2 67991  43.0000 355.2588 0001451 254.1437 290.2598 15.50526672  4484
STARLINK-36950          
1 67992U 26039G   26078.66668981  .00089467  00000+0  15159-2 0  9992
2 67992  42.9999 354.8815 0002003 247.4992  89.6297 15.50533255  4484
STARLINK-36975          
1 67993U 26039H   26078.66668981  .00103261  00000+0  17470-2 0  9990
2 67993  43.0000 354.7840 0001579 236.4241 139.9907 15.50511291  4482
STARLINK-36993          
1 67994U 26039J   26078.66668981 -.01853431  00000+0 -24374-1 0  9995
2 67994  42.9996 354.1874 0001303 248.0279   9.7157 15.60817294  4485
STARLINK-36968          
1 67995U 26039K   26078.66668981  .00081620  00000+0  13855-2 0  9999
2 67995  43.0000 354.9842 0001670 258.8955  36.3969 15.50519571  4487
STARLINK-36979          
1 67996U 26039L   26078.66668981 -.01888785  00000+0 -23381-1 0  9994
2 67996  43.0001 354.1063 0001687 251.8560  37.9520 15.62417719  4483
STARLINK-36994          
1 67997U 26039M   26078.66668981 -.01865383  00000+0 -28973-1 0  9996
2 67997  42.9996 354.3596 0001263 256.8014 290.9787 15.56492185  4486
STARLINK-36988          
1 67998U 26039N   26078.66668981 -.01871653  00000+0 -27960-1 0  9999
2 67998  42.9996 354.3151 0001335 258.0317 307.7393 15.57533811  4487
STARLINK-36926          
1 67999U 26039P   26078.66668981 -.01868125  00000+0 -28815-1 0  9990
2 67999  42.9998 354.3385 0001231 258.2938 297.8456 15.56681590  4481
