[{"OBJECT_NAME":"STARLINK-36867","OBJECT_ID":"2026-038Y","EPOCH":"2026-03-19T16:00:01.999584","MEAN_MOTION":15.49453573,"ECCENTRICITY":0.0001798,"INCLINATION":97.2848,"RA_OF_ASC_NODE":89.4375,"ARG_OF_PERICENTER":108.2362,"MEAN_ANOMALY":314.05,"EPHEMERIS_TYPE":0,"CLASSIFICATION_TYPE":"U","NORAD_CAT_ID":67983,"ELEMENT_SET_NO":999,"REV_AT_EPOCH":480,"BSTAR":-0.0086582,"MEAN_MOTION_DOT":-0.00449312,"MEAN_MOTION_DDOT":0},{"OBJECT_NAME":"STARLINK-36266","OBJECT_ID":"2026-038Z","EPOCH":"2026-03-19T16:00:01.999584","MEAN_MOTION":15.69045704,"ECCENTRICITY":0.0001878,"INCLINATION":97.2859,"RA_OF_ASC_NODE":89.5174,"ARG_OF_PERICENTER":94.4041,"MEAN_ANOMALY":173.1299,"EPHEMERIS_TYPE":0,"CLASSIFICATION_TYPE":"U","NORAD_CAT_ID":67984,"ELEMENT_SET_NO":999,"REV_AT_EPOCH":477,"BSTAR":-0.023647,"MEAN_MOTION_DOT":-0.02346501,"MEAN_MOTION_DDOT":0},{"OBJECT_NAME":"STARLINK-36802","OBJECT_ID":"2026-038AA","EPOCH":"2026-03-19T19:19:31.215360","MEAN_MOTION":15.75209668,"ECCENTRICITY":0.0001597,"INCLINATION":97.2878,"RA_OF_ASC_NODE":89.6681,"ARG_OF_PERICENTER":80.921,"MEAN_ANOMALY":279.2236,"EPHEMERIS_TYPE":0,"CLASSIFICATION_TYPE":"U","NORAD_CAT_ID":67985,"ELEMENT_SET_NO":999,"REV_AT_EPOCH":478,"BSTAR":0.00087039,"MEAN_MOTION_DOT":0.00131831,"MEAN_MOTION_DDOT":0},{"OBJECT_NAME":"STARLINK-36535","OBJECT_ID":"2026-039A","EPOCH":"2026-03-19T16:00:01.999584","MEAN_MOTION":15.603004,"ECCENTRICITY":0.0001343,"INCLINATION":42.9998,"RA_OF_ASC_NODE":354.2994,"ARG_OF_PERICENTER":250.6367,"MEAN_ANOMALY":323.1359,"EPHEMERIS_TYPE":0,"CLASSIFICATION_TYPE":"U","NORAD_CAT_ID":67986,"ELEMENT_SET_NO":999,"REV_AT_EPOCH":448,"BSTAR":-0.02515,"MEAN_MOTION_DOT":-0.01872056,"MEAN_MOTION_DDOT":0},{"OBJECT_NAME":"STARLINK-36744","OBJECT_ID":"2026-039B","EPOCH":"2026-03-19T16:00:01.999584","MEAN_MOTION":15.61756009,"ECCENTRICITY":0.0001265,"INCLINATION":42.9994,"RA_OF_ASC_NODE":354.2223,"ARG_OF_PERICENTER":250.0906,"MEAN_ANOMALY":354.4594,"EPHEMERIS_TYPE":0,"CLASSIFICATION_TYPE":"U","NORAD_CAT_ID":67987,"ELEMENT_SET_NO":999,"REV_AT_EPOCH":448,"BSTAR":-0.023584,"MEAN_MOTION_DOT":-0.01859618,"MEAN_MOTION_DDOT":0},{"OBJECT_NAME":"STARLINK-36734","OBJECT_ID":"2026-039C","EPOCH":"2026-03-19T16:00:01.999584","MEAN_MOTION":15.50527926,"ECCENTRICITY":0.0001849,"INCLINATION":42.9999,"RA_OF_ASC_NODE":355.2696,"ARG_OF_PERICENTER":249.4362,"MEAN_ANOMALY":291.5365,"EPHEMERIS_TYPE":0,"CLASSIFICATION_TYPE":"U","NORAD_CAT_ID":67988,"ELEMENT_SET_NO":999,"REV_AT_EPOCH":448,"BSTAR":0.0011326,"MEAN_MOTION_DOT":0.00066551,"MEAN_MOTION_DDOT":0},{"OBJECT_NAME":"STARLINK-36957","OBJECT_ID":"2026-039D","EPOCH":"2026-03-19T16:00:01.999584","MEAN_MOTION":15.60620393,"ECCENTRICITY":0.0001195,"INCLINATION":42.9996,"RA_OF_ASC_NODE":354.2511,"ARG_OF_PERICENTER":249.2779,"MEAN_ANOMALY":343.3989,"EPHEMERIS_TYPE":0,"CLASSIFICATION_TYPE":"U","NORAD_CAT_ID":67989,"ELEMENT_SET_NO":999,"REV_AT_EPOCH":448,"BSTAR":-0.024613,"MEAN_MOTION_DOT":-0.01856784,"MEAN_MOTION_DDOT":0},{"OBJECT_NAME":"STARLINK-36951","OBJECT_ID":"2026-039E","EPOCH":"2026-03-19T06:00:02.000160","MEAN_MOTION":15.58361148,"ECCENTRICITY":0.00015576,"INCLINATION":42.9997,"RA_OF_ASC_NODE":356.9048,"ARG_OF_PERICENTER":268.0285,"MEAN_ANOMALY":69.2344,"EPHEMERIS_TYPE":0,"CLASSIFICATION_TYPE":"U","NORAD_CAT_ID":67990,"ELEMENT_SET_NO":999,"REV_AT_EPOCH":441,"BSTAR":-0.026703189,"MEAN_MOTION_DOT":-0.01847922,"MEAN_MOTION_DDOT":0},{"OBJECT_NAME":"STARLINK-36941","OBJECT_ID":"2026-039F","EPOCH":"2026-03-19T16:00:01.999584","MEAN_MOTION":15.50526672,"ECCENTRICITY":0.0001451,"INCLINATION":43,"RA_OF_ASC_NODE":355.2588,"ARG_OF_PERICENTER":254.1437,"MEAN_ANOMALY":290.2598,"EPHEMERIS_TYPE":0,"CLASSIFICATION_TYPE":"U","NORAD_CAT_ID":67991,"ELEMENT_SET_NO":999,"REV_AT_EPOCH":448,"BSTAR":0.0010943,"MEAN_MOTION_DOT":0.00064264,"MEAN_MOTION_DDOT":0},{"OBJECT_NAME":"STARLINK-36950","OBJECT_ID":"2026-039G","EPOCH":"2026-03-19T16:00:01.999584","MEAN_MOTION":15.50533255,"ECCENTRICITY":0.0002003,"INCLINATION":42.9999,"RA_OF_ASC_NODE":354.8815,"ARG_OF_PERICENTER":247.4992,"MEAN_ANOMALY":89.6297,"EPHEMERIS_TYPE":0,"CLASSIFICATION_TYPE":"U","NORAD_CAT_ID":67992,"ELEMENT_SET_NO":999,"REV_AT_EPOCH":448,"BSTAR":0.0015159,"MEAN_MOTION_DOT":0.00089467,"MEAN_MOTION_DDOT":0},{"OBJECT_NAME":"STARLINK-36975","OBJECT_ID":"2026-039H","EPOCH":"2026-03-19T16:00:01.999584","MEAN_MOTION":15.50511291,"ECCENTRICITY":0.0001579,"INCLINATION":43,"RA_OF_ASC_NODE":354.784,"ARG_OF_PERICENTER":236.4241,"MEAN_ANOMALY":139.9907,"EPHEMERIS_TYPE":0,"CLASSIFICATION_TYPE":"U","NORAD_CAT_ID":67993,"ELEMENT_SET_NO":999,"REV_AT_EPOCH":448,"BSTAR":0.001747,"MEAN_MOTION_DOT":0.00103261,"MEAN_MOTION_DDOT":0},{"OBJECT_NAME":"STARLINK-36993","OBJECT_ID":"2026-039J","EPOCH":"2026-03-19T16:00:01.999584","MEAN_MOTION":15.60817294,"ECCENTRICITY":0.0001303,"INCLINATION":42.9996,"RA_OF_ASC_NODE":354.1874,"ARG_OF_PERICENTER":248.0279,"MEAN_ANOMALY":9.7157,"EPHEMERIS_TYPE":0,"CLASSIFICATION_TYPE":"U","NORAD_CAT_ID":67994,"ELEMENT_SET_NO":999,"REV_AT_EPOCH":448,"BSTAR":-0.024374,"MEAN_MOTION_DOT":-0.01853431,"MEAN_MOTION_DDOT":0},{"OBJECT_NAME":"STARLINK-36968","OBJECT_ID":"2026-039K","EPOCH":"2026-03-19T16:00:01.999584","MEAN_MOTION":15.50519571,"ECCENTRICITY":0.000167,"INCLINATION":43,"RA_OF_ASC_NODE":354.9842,"ARG_OF_PERICENTER":258.8955,"MEAN_ANOMALY":36.3969,"EPHEMERIS_TYPE":0,"CLASSIFICATION_TYPE":"U","NORAD_CAT_ID":67995,"ELEMENT_SET_NO":999,"REV_AT_EPOCH":448,"BSTAR":0.0013855,"MEAN_MOTION_DOT":0.0008162,"MEAN_MOTION_DDOT":0},{"OBJECT_NAME":"STARLINK-36979","OBJECT_ID":"2026-039L","EPOCH":"2026-03-19T16:00:01.999584","MEAN_MOTION":15.62417719,"ECCENTRICITY":0.0001687,"INCLINATION":43.0001,"RA_OF_ASC_NODE":354.1063,"ARG_OF_PERICENTER":251.856,"MEAN_ANOMALY":37.952,"EPHEMERIS_TYPE":0,"CLASSIFICATION_TYPE":"U","NORAD_CAT_ID":67996,"ELEMENT_SET_NO":999,"REV_AT_EPOCH":448,"BSTAR":-0.023381,"MEAN_MOTION_DOT":-0.01888785,"MEAN_MOTION_DDOT":0},{"OBJECT_NAME":"STARLINK-36994","OBJECT_ID":"2026-039M","EPOCH":"2026-03-19T16:00:01.999584","MEAN_MOTION":15.56492185,"ECCENTRICITY":0.0001263,"INCLINATION":42.9996,"RA_OF_ASC_NODE":354.3596,"ARG_OF_PERICENTER":256.8014,"MEAN_ANOMALY":290.9787,"EPHEMERIS_TYPE":0,"CLASSIFICATION_TYPE":"U","NORAD_CAT_ID":67997,"ELEMENT_SET_NO":999,"REV_AT_EPOCH":448,"BSTAR":-0.028973,"MEAN_MOTION_DOT":-0.01865383,"MEAN_MOTION_DDOT":0},{"OBJECT_NAME":"STARLINK-36988","OBJECT_ID":"2026-039N","EPOCH":"2026-03-19T16:00:01.999584","MEAN_MOTION":15.57533811,"ECCENTRICITY":0.0001335,"INCLINATION":42.9996,"RA_OF_ASC_NODE":354.3151,"ARG_OF_PERICENTER":258.0317,"MEAN_ANOMALY":307.7393,"EPHEMERIS_TYPE":0,"CLASSIFICATION_TYPE":"U","NORAD_CAT_ID":67998,"ELEMENT_SET_NO":999,"REV_AT_EPOCH":448,"BSTAR":-0.02796,"MEAN_MOTION_DOT":-0.01871653,"MEAN_MOTION_DDOT":0},{"OBJECT_NAME":"STARLINK-36926","OBJECT_ID":"2026-039P","EPOCH":"2026-03-19T16:00:01.999584","MEAN_MOTION":15.5668159,"ECCENTRICITY":0.0001231,"INCLINATION":42.9998,"RA_OF_ASC_NODE":354.3385,"ARG_OF_PERICENTER":258.2938,"MEAN_ANOMALY":297.8456,"EPHEMERIS_TYPE":0,"CLASSIFICATION_TYPE":"U","NORAD_CAT_ID":67999,"ELEMENT_SET_NO":999,"REV_AT_EPOCH":448,"BSTAR":-0.028815,"MEAN_MOTION_DOT":-0.01868125,"MEAN_MOTION_DDOT":0}]
